COSMOS 2251 DEB         
1 35657U 93036ANY 17345.57286801  .00167450  00000-0  26596-2 0  9997
2 35657  73.9731 254.5222 0006054 161.0917 199.0523 15.52645409452843
